{
    "links": {
        "self": "http://www.neowsapp.com/rest/v1/neo/54017063?api_key=iIulBulltgU6a56xZRHN4H3l9WmuAYTsLGpBGhQ2"
    },
    "id": "54017063",
    "neo_reference_id": "54017063",
    "name": "(2020 KK)",
    "designation": "2020 KK",
    "nasa_jpl_url": "http://ssd.jpl.nasa.gov/sbdb.cgi?sstr=54017063",
    "absolute_magnitude_h": 24.621,
    "estimated_diameter": {
        "kilometers": {
            "estimated_diameter_min": 0.0316486345,
            "estimated_diameter_max": 0.0707684981
        },
        "meters": {
            "estimated_diameter_min": 31.6486344821,
            "estimated_diameter_max": 70.768498097
        },
        "miles": {
            "estimated_diameter_min": 0.0196655437,
            "estimated_diameter_max": 0.0439734924
        },
        "feet": {
            "estimated_diameter_min": 103.8341059543,
            "estimated_diameter_max": 232.1801192966
        }
    },
    "is_potentially_hazardous_asteroid": false,
    "close_approach_data": [
        {
            "close_approach_date": "2017-07-24",
            "close_approach_date_full": "2017-Jul-24 07:50",
            "epoch_date_close_approach": 1500882600000,
            "relative_velocity": {
                "kilometers_per_second": "25.7619689113",
                "kilometers_per_hour": "92743.0880807714",
                "miles_per_hour": "57626.9482577438"
            },
            "miss_distance": {
                "astronomical": "0.3742182853",
                "lunar": "145.5709129817",
                "kilometers": "55982258.395932311",
                "miles": "34785762.3299994518"
            },
            "orbiting_body": "Earth"
        },
        {
            "close_approach_date": "2020-05-10",
            "close_approach_date_full": "2020-May-10 20:35",
            "epoch_date_close_approach": 1589142900000,
            "relative_velocity": {
                "kilometers_per_second": "21.3048315926",
                "kilometers_per_hour": "76697.3937334082",
                "miles_per_hour": "47656.7777895169"
            },
            "miss_distance": {
                "astronomical": "0.0518554494",
                "lunar": "20.1717698166",
                "kilometers": "7757464.778132778",
                "miles": "4820265.0944692164"
            },
            "orbiting_body": "Earth"
        },
        {
            "close_approach_date": "2022-07-29",
            "close_approach_date_full": "2022-Jul-29 10:34",
            "epoch_date_close_approach": 1659090840000,
            "relative_velocity": {
                "kilometers_per_second": "21.6292616623",
                "kilometers_per_hour": "77865.3419842134",
                "miles_per_hour": "48382.4954123575"
            },
            "miss_distance": {
                "astronomical": "0.3427725135",
                "lunar": "133.3385077515",
                "kilometers": "51278037.914146245",
                "miles": "31862695.267038381"
            },
            "orbiting_body": "Earth"
        },
        {
            "close_approach_date": "2022-10-23",
            "close_approach_date_full": "2022-Oct-23 00:51",
            "epoch_date_close_approach": 1666486260000,
            "relative_velocity": {
                "kilometers_per_second": "24.6182184372",
                "kilometers_per_hour": "88625.5863738944",
                "miles_per_hour": "55068.4928221568"
            },
            "miss_distance": {
                "astronomical": "0.1081191335",
                "lunar": "42.0583429315",
                "kilometers": "16174392.077845645",
                "miles": "10050301.198514101"
            },
            "orbiting_body": "Venus"
        }
    ],
    "orbital_data": {
        "orbit_id": "2",
        "orbit_determination_date": "2020-05-19 07:10:35",
        "first_observation_date": "2020-05-15",
        "last_observation_date": "2020-05-19",
        "data_arc_in_days": 4,
        "observations_used": 18,
        "orbit_uncertainty": "9",
        "minimum_orbit_intersection": ".0390899",
        "jupiter_tisserand_invariant": "6.417",
        "epoch_osculation": "2458985.5",
        "eccentricity": ".6897296613809827",
        "semi_major_axis": ".8883279020806022",
        "inclination": "20.69449375201077",
        "ascending_node_longitude": "56.51878895257225",
        "orbital_period": "305.8147172761733",
        "perihelion_distance": ".2756217989832697",
        "perihelion_argument": "31.93105579674999",
        "aphelion_distance": "1.501034005177935",
        "perihelion_time": "2458924.228171996128",
        "mean_anomaly": "72.12817708009143",
        "mean_motion": "1.177183371704421",
        "equinox": "J2000",
        "orbit_class": {
            "orbit_class_type": "ATE",
            "orbit_class_description": "Near-Earth asteroid orbits similar to that of 2062 Aten",
            "orbit_class_range": "a (semi-major axis) < 1.0 AU; q (perihelion) > 0.983 AU"
        }
    },
    "is_sentry_object": false
}